0 SL-12 R/B(2)
1 26101U 00013D   13281.54172405  .00000110  00000-0  10000-3 0  4044
2 26101 011.3684 043.5575 0006217 335.3001 024.6742 01.00756118 49967
0 SL-12 R/B(2)
1 26101U 00013D   13285.51149734  .00000099  00000-0  10000-3 0  4051
2 26101 011.3753 043.5091 0005953 333.6645 026.3101 01.00757775 50003
0 SL-12 R/B(2)
1 26101U 00013D   13288.48874674  .00000089  00000-0  10000-3 0  4068
2 26101 011.3812 043.4701 0005783 335.1701 024.7976 01.00759106 50032
0 SL-12 R/B(2)
1 26101U 00013D   13290.47353359  .00000000  00000-0  10000-3 0  4087
2 26101 011.3861 043.4460 0005547 328.4972 031.4510 01.00756374 50056
0 SL-12 R/B(2)
1 26101U 00013D   13291.46591492  .00000076  00000-0  10000-3 0  4071
2 26101 011.3863 043.4342 0005610 332.4508 027.4859 01.00760406 50061
0 SL-12 R/B(2)
1 26101U 00013D   13295.43549292  .00000055  00000-0  10000-3 0  4081
2 26101 011.3932 043.3861 0005491 330.1286 029.7999 01.00762127 50105
